[{"OBJECT_NAME":"STARLINK-30928","OBJECT_ID":"2023-183R","EPOCH":"2026-03-09T22:00:01.999584","MEAN_MOTION":15.26728475,"ECCENTRICITY":0.00015168,"INCLINATION":43.0014,"RA_OF_ASC_NODE":40.0806,"ARG_OF_PERICENTER":255.5144,"MEAN_ANOMALY":45.4622,"EPHEMERIS_TYPE":0,"CLASSIFICATION_TYPE":"U","NORAD_CAT_ID":58452,"ELEMENT_SET_NO":999,"REV_AT_EPOCH":552,"BSTAR":0.0018034848,"MEAN_MOTION_DOT":0.00048418,"MEAN_MOTION_DDOT":0},{"OBJECT_NAME":"COSMOS 2576","OBJECT_ID":"2024-092A","EPOCH":"2026-03-09T19:49:29.705664","MEAN_MOTION":15.27760963,"ECCENTRICITY":0.0005946,"INCLINATION":97.4253,"RA_OF_ASC_NODE":186.0053,"ARG_OF_PERICENTER":159.7731,"MEAN_ANOMALY":200.3745,"EPHEMERIS_TYPE":0,"CLASSIFICATION_TYPE":"U","NORAD_CAT_ID":59773,"ELEMENT_SET_NO":999,"REV_AT_EPOCH":10127,"BSTAR":0.00056283,"MEAN_MOTION_DOT":0.00015211,"MEAN_MOTION_DDOT":0}]
